<?xml version="1.0" encoding="UTF-8"?>
<ndm xmlns:xsi="http://www.w3.org/2001/XMLSchema-instance" xsi:noNamespaceSchemaLocation="https://sanaregistry.org/r/ndmxml_unqualified/ndmxml-2.0.0-master-2.0.xsd">
<omm id="CCSDS_OMM_VERS" version="2.0">
<header><CREATION_DATE/><ORIGINATOR/></header><body><segment><metadata><OBJECT_NAME>KUIPER-00104</OBJECT_NAME><OBJECT_ID>2025-171L</OBJECT_ID><CENTER_NAME>EARTH</CENTER_NAME><REF_FRAME>TEME</REF_FRAME><TIME_SYSTEM>UTC</TIME_SYSTEM><MEAN_ELEMENT_THEORY>SGP4</MEAN_ELEMENT_THEORY></metadata><data><meanElements><EPOCH>2025-08-24T14:29:16.984320</EPOCH><MEAN_MOTION>15.35417393</MEAN_MOTION><ECCENTRICITY>.00046904</ECCENTRICITY><INCLINATION>51.8792</INCLINATION><RA_OF_ASC_NODE>341.6230</RA_OF_ASC_NODE><ARG_OF_PERICENTER>180.0132</ARG_OF_PERICENTER><MEAN_ANOMALY>180.0855</MEAN_ANOMALY></meanElements><tleParameters><EPHEMERIS_TYPE>0</EPHEMERIS_TYPE><CLASSIFICATION_TYPE>U</CLASSIFICATION_TYPE><NORAD_CAT_ID>65142</NORAD_CAT_ID><ELEMENT_SET_NO>999</ELEMENT_SET_NO><REV_AT_EPOCH>325</REV_AT_EPOCH><BSTAR>.61739682E-3</BSTAR><MEAN_MOTION_DOT>.21252E-3</MEAN_MOTION_DOT><MEAN_MOTION_DDOT>0</MEAN_MOTION_DDOT></tleParameters></data></segment></body></omm>
<omm id="CCSDS_OMM_VERS" version="2.0">
<header><CREATION_DATE/><ORIGINATOR/></header><body><segment><metadata><OBJECT_NAME>KUIPER-00105</OBJECT_NAME><OBJECT_ID>2025-171M</OBJECT_ID><CENTER_NAME>EARTH</CENTER_NAME><REF_FRAME>TEME</REF_FRAME><TIME_SYSTEM>UTC</TIME_SYSTEM><MEAN_ELEMENT_THEORY>SGP4</MEAN_ELEMENT_THEORY></metadata><data><meanElements><EPOCH>2025-08-24T14:23:50.139168</EPOCH><MEAN_MOTION>15.35847502</MEAN_MOTION><ECCENTRICITY>.00060228</ECCENTRICITY><INCLINATION>51.8782</INCLINATION><RA_OF_ASC_NODE>341.5954</RA_OF_ASC_NODE><ARG_OF_PERICENTER>164.7782</ARG_OF_PERICENTER><MEAN_ANOMALY>195.3386</MEAN_ANOMALY></meanElements><tleParameters><EPHEMERIS_TYPE>0</EPHEMERIS_TYPE><CLASSIFICATION_TYPE>U</CLASSIFICATION_TYPE><NORAD_CAT_ID>65143</NORAD_CAT_ID><ELEMENT_SET_NO>999</ELEMENT_SET_NO><REV_AT_EPOCH>326</REV_AT_EPOCH><BSTAR>.4160342E-3</BSTAR><MEAN_MOTION_DOT>.14385E-3</MEAN_MOTION_DOT><MEAN_MOTION_DDOT>0</MEAN_MOTION_DDOT></tleParameters></data></segment></body></omm>
<omm id="CCSDS_OMM_VERS" version="2.0">
<header><CREATION_DATE/><ORIGINATOR/></header><body><segment><metadata><OBJECT_NAME>KUIPER-00106</OBJECT_NAME><OBJECT_ID>2025-171N</OBJECT_ID><CENTER_NAME>EARTH</CENTER_NAME><REF_FRAME>TEME</REF_FRAME><TIME_SYSTEM>UTC</TIME_SYSTEM><MEAN_ELEMENT_THEORY>SGP4</MEAN_ELEMENT_THEORY></metadata><data><meanElements><EPOCH>2025-08-24T14:27:54.156096</EPOCH><MEAN_MOTION>15.35523785</MEAN_MOTION><ECCENTRICITY>.000538</ECCENTRICITY><INCLINATION>51.8780</INCLINATION><RA_OF_ASC_NODE>341.6099</RA_OF_ASC_NODE><ARG_OF_PERICENTER>175.2513</ARG_OF_PERICENTER><MEAN_ANOMALY>184.8525</MEAN_ANOMALY></meanElements><tleParameters><EPHEMERIS_TYPE>0</EPHEMERIS_TYPE><CLASSIFICATION_TYPE>U</CLASSIFICATION_TYPE><NORAD_CAT_ID>65144</NORAD_CAT_ID><ELEMENT_SET_NO>999</ELEMENT_SET_NO><REV_AT_EPOCH>326</REV_AT_EPOCH><BSTAR>.39917755E-3</BSTAR><MEAN_MOTION_DOT>.13639E-3</MEAN_MOTION_DOT><MEAN_MOTION_DDOT>0</MEAN_MOTION_DDOT></tleParameters></data></segment></body></omm>
<omm id="CCSDS_OMM_VERS" version="2.0">
<header><CREATION_DATE/><ORIGINATOR/></header><body><segment><metadata><OBJECT_NAME>KUIPER-00107</OBJECT_NAME><OBJECT_ID>2025-171P</OBJECT_ID><CENTER_NAME>EARTH</CENTER_NAME><REF_FRAME>TEME</REF_FRAME><TIME_SYSTEM>UTC</TIME_SYSTEM><MEAN_ELEMENT_THEORY>SGP4</MEAN_ELEMENT_THEORY></metadata><data><meanElements><EPOCH>2025-08-24T14:28:20.726688</EPOCH><MEAN_MOTION>15.35476727</MEAN_MOTION><ECCENTRICITY>.0005325</ECCENTRICITY><INCLINATION>51.8790</INCLINATION><RA_OF_ASC_NODE>341.6189</RA_OF_ASC_NODE><ARG_OF_PERICENTER>176.9711</ARG_OF_PERICENTER><MEAN_ANOMALY>183.1308</MEAN_ANOMALY></meanElements><tleParameters><EPHEMERIS_TYPE>0</EPHEMERIS_TYPE><CLASSIFICATION_TYPE>U</CLASSIFICATION_TYPE><NORAD_CAT_ID>65145</NORAD_CAT_ID><ELEMENT_SET_NO>999</ELEMENT_SET_NO><REV_AT_EPOCH>326</REV_AT_EPOCH><BSTAR>.36792498E-3</BSTAR><MEAN_MOTION_DOT>.12519E-3</MEAN_MOTION_DOT><MEAN_MOTION_DDOT>0</MEAN_MOTION_DDOT></tleParameters></data></segment></body></omm>
<omm id="CCSDS_OMM_VERS" version="2.0">
<header><CREATION_DATE/><ORIGINATOR/></header><body><segment><metadata><OBJECT_NAME>KUIPER-00108</OBJECT_NAME><OBJECT_ID>2025-171Q</OBJECT_ID><CENTER_NAME>EARTH</CENTER_NAME><REF_FRAME>TEME</REF_FRAME><TIME_SYSTEM>UTC</TIME_SYSTEM><MEAN_ELEMENT_THEORY>SGP4</MEAN_ELEMENT_THEORY></metadata><data><meanElements><EPOCH>2025-08-24T14:32:15.192096</EPOCH><MEAN_MOTION>15.35052545</MEAN_MOTION><ECCENTRICITY>.00053977</ECCENTRICITY><INCLINATION>51.8797</INCLINATION><RA_OF_ASC_NODE>341.6353</RA_OF_ASC_NODE><ARG_OF_PERICENTER>194.3627</ARG_OF_PERICENTER><MEAN_ANOMALY>165.7206</MEAN_ANOMALY></meanElements><tleParameters><EPHEMERIS_TYPE>0</EPHEMERIS_TYPE><CLASSIFICATION_TYPE>U</CLASSIFICATION_TYPE><NORAD_CAT_ID>65146</NORAD_CAT_ID><ELEMENT_SET_NO>999</ELEMENT_SET_NO><REV_AT_EPOCH>326</REV_AT_EPOCH><BSTAR>.30496862E-3</BSTAR><MEAN_MOTION_DOT>.10166E-3</MEAN_MOTION_DOT><MEAN_MOTION_DDOT>0</MEAN_MOTION_DDOT></tleParameters></data></segment></body></omm>
<omm id="CCSDS_OMM_VERS" version="2.0">
<header><CREATION_DATE/><ORIGINATOR/></header><body><segment><metadata><OBJECT_NAME>KUIPER-00109</OBJECT_NAME><OBJECT_ID>2025-171R</OBJECT_ID><CENTER_NAME>EARTH</CENTER_NAME><REF_FRAME>TEME</REF_FRAME><TIME_SYSTEM>UTC</TIME_SYSTEM><MEAN_ELEMENT_THEORY>SGP4</MEAN_ELEMENT_THEORY></metadata><data><meanElements><EPOCH>2025-08-24T14:25:50.380320</EPOCH><MEAN_MOTION>15.35599113</MEAN_MOTION><ECCENTRICITY>.00055146</ECCENTRICITY><INCLINATION>51.8782</INCLINATION><RA_OF_ASC_NODE>341.6021</RA_OF_ASC_NODE><ARG_OF_PERICENTER>171.5024</ARG_OF_PERICENTER><MEAN_ANOMALY>188.6056</MEAN_ANOMALY></meanElements><tleParameters><EPHEMERIS_TYPE>0</EPHEMERIS_TYPE><CLASSIFICATION_TYPE>U</CLASSIFICATION_TYPE><NORAD_CAT_ID>65147</NORAD_CAT_ID><ELEMENT_SET_NO>999</ELEMENT_SET_NO><REV_AT_EPOCH>325</REV_AT_EPOCH><BSTAR>.35415946E-3</BSTAR><MEAN_MOTION_DOT>.12084E-3</MEAN_MOTION_DOT><MEAN_MOTION_DDOT>0</MEAN_MOTION_DDOT></tleParameters></data></segment></body></omm>
<omm id="CCSDS_OMM_VERS" version="2.0">
<header><CREATION_DATE/><ORIGINATOR/></header><body><segment><metadata><OBJECT_NAME>KUIPER-00110</OBJECT_NAME><OBJECT_ID>2025-171S</OBJECT_ID><CENTER_NAME>EARTH</CENTER_NAME><REF_FRAME>TEME</REF_FRAME><TIME_SYSTEM>UTC</TIME_SYSTEM><MEAN_ELEMENT_THEORY>SGP4</MEAN_ELEMENT_THEORY></metadata><data><meanElements><EPOCH>2025-08-24T14:27:26.959104</EPOCH><MEAN_MOTION>15.35568071</MEAN_MOTION><ECCENTRICITY>.00053966</ECCENTRICITY><INCLINATION>51.8789</INCLINATION><RA_OF_ASC_NODE>341.6142</RA_OF_ASC_NODE><ARG_OF_PERICENTER>173.6530</ARG_OF_PERICENTER><MEAN_ANOMALY>186.4526</MEAN_ANOMALY></meanElements><tleParameters><EPHEMERIS_TYPE>0</EPHEMERIS_TYPE><CLASSIFICATION_TYPE>U</CLASSIFICATION_TYPE><NORAD_CAT_ID>65148</NORAD_CAT_ID><ELEMENT_SET_NO>999</ELEMENT_SET_NO><REV_AT_EPOCH>325</REV_AT_EPOCH><BSTAR>.62179396E-3</BSTAR><MEAN_MOTION_DOT>.21513E-3</MEAN_MOTION_DOT><MEAN_MOTION_DDOT>0</MEAN_MOTION_DDOT></tleParameters></data></segment></body></omm>
<omm id="CCSDS_OMM_VERS" version="2.0">
<header><CREATION_DATE/><ORIGINATOR/></header><body><segment><metadata><OBJECT_NAME>KUIPER-00111</OBJECT_NAME><OBJECT_ID>2025-171T</OBJECT_ID><CENTER_NAME>EARTH</CENTER_NAME><REF_FRAME>TEME</REF_FRAME><TIME_SYSTEM>UTC</TIME_SYSTEM><MEAN_ELEMENT_THEORY>SGP4</MEAN_ELEMENT_THEORY></metadata><data><meanElements><EPOCH>2025-08-24T14:30:41.114592</EPOCH><MEAN_MOTION>15.35289328</MEAN_MOTION><ECCENTRICITY>.00047649</ECCENTRICITY><INCLINATION>51.8792</INCLINATION><RA_OF_ASC_NODE>341.6289</RA_OF_ASC_NODE><ARG_OF_PERICENTER>188.6934</ARG_OF_PERICENTER><MEAN_ANOMALY>171.3970</MEAN_ANOMALY></meanElements><tleParameters><EPHEMERIS_TYPE>0</EPHEMERIS_TYPE><CLASSIFICATION_TYPE>U</CLASSIFICATION_TYPE><NORAD_CAT_ID>65149</NORAD_CAT_ID><ELEMENT_SET_NO>999</ELEMENT_SET_NO><REV_AT_EPOCH>325</REV_AT_EPOCH><BSTAR>.41012522E-3</BSTAR><MEAN_MOTION_DOT>.13916E-3</MEAN_MOTION_DOT><MEAN_MOTION_DDOT>0</MEAN_MOTION_DDOT></tleParameters></data></segment></body></omm>

</ndm>
