KUIPER-00104            
1 65142U 25171L   25236.60366880  .00021252  00000+0  61740-3 0  9991
2 65142  51.8792 341.6230 0004690 180.0132 180.0855 15.35417393  3253
KUIPER-00105            
1 65143U 25171M   25236.59988587  .00014385  00000+0  41603-3 0  9999
2 65143  51.8782 341.5954 0006022 164.7782 195.3386 15.35847502  3264
KUIPER-00106            
1 65144U 25171N   25236.60271014  .00013639  00000+0  39918-3 0  9999
2 65144  51.8780 341.6099 0005380 175.2513 184.8525 15.35523785  3261
KUIPER-00107            
1 65145U 25171P   25236.60301767  .00012519  00000+0  36792-3 0  9992
2 65145  51.8790 341.6189 0005325 176.9711 183.1308 15.35476727  3264
KUIPER-00108            
1 65146U 25171Q   25236.60573139  .00010166  00000+0  30497-3 0  9999
2 65146  51.8797 341.6353 0005397 194.3627 165.7206 15.35052545  3265
KUIPER-00109            
1 65147U 25171R   25236.60127755  .00012084  00000+0  35416-3 0  9996
2 65147  51.8782 341.6021 0005514 171.5024 188.6056 15.35599113  3254
KUIPER-00110            
1 65148U 25171S   25236.60239536  .00021513  00000+0  62179-3 0  9991
2 65148  51.8789 341.6142 0005396 173.6530 186.4526 15.35568071  3256
KUIPER-00111            
1 65149U 25171T   25236.60464253  .00013916  00000+0  41013-3 0  9990
2 65149  51.8792 341.6289 0004764 188.6934 171.3970 15.35289328  3256
